NORAD_CAT_ID,OBJECT_NAME,OBJECT_TYPE,EPOCH,MEAN_MOTION,ECCENTRICITY,INCLINATION,RA_OF_ASC_NODE,ARG_OF_PERICENTER,MEAN_ANOMALY,BSTAR,MEAN_MOTION_DOT,MEAN_MOTION_DDOT,TLE_LINE0,TLE_LINE1,TLE_LINE2,SEMIMAJOR_AXIS,PERIOD,APOGEE,PERIGEE,DECAYED
56817.0,STARLINK-5982,PAYLOAD,2023-08-21 07:18:51,15.69919986,0.0003288,69.9977,182.6542,272.932,87.1499,1.1986e-05,1.228e-05,0.0,0 STARLINK-5982,1 56817U 23078BC  23233.30476409  .00001228  00000-0  11986-4 0  9995,2 56817  69.9977 182.6542 0003288 272.9320  87.1499 15.69919986 13184,6737.263,91.724,361.343,356.913,0.0
56817.0,STARLINK-5982,PAYLOAD,2023-08-21 22:36:22,15.69931069,0.000331,69.9981,180.8614,269.481,90.6006,1.5963e-05,1.708e-05,0.0,0 STARLINK-5982,1 56817U 23078BC  23233.94192224  .00001708  00000-0  15963-4 0  9997,2 56817  69.9981 180.8614 0003310 269.4810  90.6006 15.69931069 13280,6737.231,91.724,361.326,356.866,0.0
56817.0,STARLINK-5982,PAYLOAD,2023-08-22 06:15:08,15.69913668,0.00032,69.9979,179.9652,266.1176,93.9654,-4.7661e-06,-7.85e-06,0.0,0 STARLINK-5982,1 56817U 23078BC  23234.26052048 -.00000785  00000-0 -47661-5 0  9999,2 56817  69.9979 179.9652 0003200 266.1176  93.9654 15.69913668 13331,6737.281,91.725,361.302,356.99,0.0
56817.0,STARLINK-5982,PAYLOAD,2023-08-22 23:04:24,15.69916035,0.0003584,69.9972,177.9946,270.1726,89.9059,1.36e-05,1.422e-05,0.0,0 STARLINK-5982,1 56817U 23078BC  23234.96140008  .00001422  00000-0  13600-4 0  9992,2 56817  69.9972 177.9946 0003584 270.1726  89.9059 15.69916035 13446,6737.274,91.725,361.554,356.725,0.0
56817.0,STARLINK-5982,PAYLOAD,2023-08-24 04:07:42,15.6991623,0.0003497,69.9976,174.5912,265.9865,94.0931,1.3702e-05,1.434e-05,0.0,0 STARLINK-5982,1 56817U 23078BC  23236.17201715  .00001434  00000-0  13702-4 0  9996,2 56817  69.9976 174.5912 0003497 265.9865  94.0931 15.69916230 13370,6737.274,91.725,361.495,356.783,0.0
56817.0,STARLINK-5982,PAYLOAD,2023-08-24 22:28:43,15.69924135,0.0003404,69.998,172.4421,264.0526,96.0282,8.7315e-06,8.37e-06,0.0,0 STARLINK-5982,1 56817U 23078BC  23236.93661571  .00000837  00000-0  87315-5 0  9998,2 56817  69.9980 172.4421 0003404 264.0526  96.0282 15.69924135 13755,6737.251,91.724,361.409,356.823,0.0
56817.0,STARLINK-5982,PAYLOAD,2023-08-25 04:35:44,15.69922639,0.000346,69.998,171.7255,265.0767,95.0033,6.0083e-06,5.1e-06,0.0,0 STARLINK-5982,1 56817U 23078BC  23237.19148407  .00000510  00000-0  60083-5 0  9996,2 56817  69.9980 171.7255 0003460 265.0767  95.0033 15.69922639 13538,6737.255,91.724,361.451,356.789,0.0
56817.0,STARLINK-5982,PAYLOAD,2023-08-25 22:56:45,15.69915921,0.0003366,69.9987,169.5776,261.3326,98.7489,1.3743e-05,1.439e-05,0.0,0 STARLINK-5982,1 56817U 23078BC  23237.95608665  .00001439  00000-0  13743-4 0  9998,2 56817  69.9987 169.5776 0003366 261.3326  98.7489 15.69915921 13916,6737.275,91.725,361.407,356.872,0.0
56817.0,STARLINK-5982,PAYLOAD,2023-08-26 05:03:45,15.69929504,0.0003494,69.9985,168.8613,267.0683,93.0113,1.9335e-05,2.113e-05,0.0,0 STARLINK-5982,1 56817U 23078BC  23238.21094475  .00002113  00000-0  19335-4 0  9999,2 56817  69.9985 168.8613 0003494 267.0683  93.0113 15.69929504 13955,6737.236,91.724,361.455,356.747,0.0
56817.0,STARLINK-5982,PAYLOAD,2023-08-26 20:21:17,15.69923209,0.0003098,69.9985,167.0692,262.2919,97.7925,1.4186e-05,1.493e-05,0.0,0 STARLINK-5982,1 56817U 23078BC  23238.84811701  .00001493  00000-0  14186-4 0  9996,2 56817  69.9985 167.0692 0003098 262.2919  97.7925 15.69923209 13792,6737.254,91.724,361.206,357.031,0.0
56817.0,STARLINK-5982,PAYLOAD,2023-08-26 21:53:02,15.69919168,0.0003622,69.9982,166.892,269.5322,90.5458,7.7135e-06,7.14e-06,0.0,0 STARLINK-5982,1 56817U 23078BC  23238.91183758  .00000714  00000-0  77135-5 0  9997,2 56817  69.9982 166.8920 0003622 269.5322  90.5458 15.69919168 14063,6737.265,91.724,361.57,356.69,0.0
56817.0,STARLINK-5982,PAYLOAD,2023-08-27 05:31:48,15.69914399,0.0003238,69.9975,165.9924,265.2812,94.8014,1.379e-06,-4.7e-07,0.0,0 STARLINK-5982,1 56817U 23078BC  23239.23042635 -.00000047  00000-0  13790-5 0  9998,2 56817  69.9975 165.9924 0003238 265.2812  94.8014 15.69914399 13851,6737.279,91.725,361.325,356.962,0.0
56817.0,STARLINK-5982,PAYLOAD,2023-08-27 20:49:19,15.69925904,0.0003504,69.998,164.2025,271.3124,88.767,1.9238e-05,2.101e-05,0.0,0 STARLINK-5982,1 56817U 23078BC  23239.86758223  .00002101  00000-0  19238-4 0  9998,2 56817  69.9980 164.2025 0003504 271.3124  88.7670 15.69925904 13956,6737.246,91.724,361.472,356.75,0.0
56817.0,STARLINK-5982,PAYLOAD,2023-08-27 22:21:04,15.6992253,0.0003005,69.9975,164.0231,260.3121,99.7735,2.5006e-05,2.795e-05,0.0,0 STARLINK-5982,1 56817U 23078BC  23239.93129990  .00002795  00000-0  25006-4 0  9998,2 56817  69.9975 164.0231 0003005 260.3121  99.7735 15.69922530 14225,6737.256,91.724,361.145,357.096,0.0
56817.0,STARLINK-5982,PAYLOAD,2023-08-28 07:31:35,15.69900746,0.0003269,69.9971,162.9486,255.2056,104.8777,4.7264e-05,5.469e-05,0.0,0 STARLINK-5982,1 56817U 23078BC  23240.31361106  .00005469  00000-0  47264-4 0  9990,2 56817  69.9971 162.9486 0003269 255.2056 104.8777 15.69900746 14287,6737.318,91.726,361.385,356.981,0.0
56817.0,STARLINK-5982,PAYLOAD,2023-08-28 12:06:16,15.70369538,0.0005034,69.9966,162.4101,288.0208,72.0439,0.00049052,0.00060321,0.0,0 STARLINK-5982,1 56817U 23078BC  23240.50435502  .00060321  00000-0  49052-3 0  9997,2 56817  69.9966 162.4101 0005034 288.0208  72.0439 15.70369538 14310,6735.977,91.698,361.233,354.451,0.0
56817.0,STARLINK-5982,PAYLOAD,2023-08-28 22:49:07,15.69908567,0.0003196,69.998,161.1574,264.5663,95.5168,4.7977e-06,3.64e-06,0.0,0 STARLINK-5982,1 56817U 23078BC  23240.95077856  .00000364  00000-0  47977-5 0  9997,2 56817  69.9980 161.1574 0003196 264.5663  95.5168 15.69908567 14382,6737.296,91.725,361.314,357.007,0.0
56817.0,STARLINK-5982,PAYLOAD,2023-08-29 06:27:52,15.69914152,0.0003292,69.9981,160.2616,265.7289,94.3531,1.0471e-05,1.046e-05,0.0,0 STARLINK-5982,1 56817U 23078BC  23241.26935930  .00001046  00000-0  10471-4 0  9994,2 56817  69.9981 160.2616 0003292 265.7289  94.3531 15.69914152 14438,6737.28,91.725,361.363,356.927,0.0
56817.0,STARLINK-5982,PAYLOAD,2023-08-29 21:45:23,15.69919285,0.0003629,69.9973,158.4697,270.3372,89.7407,9.2062e-06,8.94e-06,0.0,0 STARLINK-5982,1 56817U 23078BC  23241.90652294  .00000894  00000-0  92062-5 0  9991,2 56817  69.9973 158.4697 0003629 270.3372  89.7407 15.69919285 14270,6737.265,91.724,361.575,356.685,0.0
56817.0,STARLINK-5982,PAYLOAD,2023-08-30 03:54:00,15.68560063,0.0002749,69.9972,157.7572,141.8791,218.2599,-0.0015676,-0.00174721,0.0,0 STARLINK-5982,1 56817U 23078BC  23242.16250687 -.00174721  00000-0 -15676-2 0  9996,2 56817  69.9972 157.7572 0002749 141.8791 218.2599 15.68560063 14571,6741.156,91.804,364.875,361.168,0.0
56817.0,STARLINK-5982,PAYLOAD,2023-08-30 20:00:01,15.69946857,0.0003512,70.0006,155.8646,268.4923,288.1307,-0.00016956,-0.00020571,0.0,0 STARLINK-5982,1 56817U 23078BC  23242.83334491 -.00020571  00000-0 -16956-3 0  9992,2 56817  70.0006 155.8646 0003512 268.4923 288.1307 15.69946857 14679,6737.186,91.723,361.417,356.685,0.0
56817.0,STARLINK-5982,PAYLOAD,2023-08-30 22:00:00,15.699615,0.000354,70.0005,155.6303,270.3192,37.1392,-0.00050993,-0.0006118,0.0,0 STARLINK-5982,1 56817U 23078BC  23242.91667824 -.00061180  00000-0 -50993-3 0  9990,2 56817  70.0005 155.6303 0003540 270.3192  37.1392 15.69961500  5956,6737.144,91.722,361.394,356.624,0.0
56817.0,STARLINK-5982,PAYLOAD,2023-08-31 04:20:25,15.69922967,0.000343,69.9979,154.8875,267.5283,92.552,1.9795e-05,2.168e-05,0.0,0 STARLINK-5982,1 56817U 23078BC  23243.18085504  .00002168  00000-0  19795-4 0  9994,2 56817  69.9979 154.8875 0003430 267.5283  92.5520 15.69922967 14733,6737.254,91.724,361.43,356.809,0.0
56817.0,STARLINK-5982,PAYLOAD,2023-09-01 10:55:28,15.69925207,0.0003337,69.9965,151.3029,269.3725,90.7089,1.1353e-05,1.153e-05,0.0,0 STARLINK-5982,1 56817U 23078BC  23244.45519006  .00001153  00000-0  11353-4 0  9999,2 56817  69.9965 151.3029 0003337 269.3725  90.7089 15.69925207 14930,6737.248,91.724,361.361,356.865,0.0
56817.0,STARLINK-5982,PAYLOAD,2023-09-01 17:02:59,15.69536224,0.0002224,69.9972,150.5862,267.1815,92.9125,-0.0004176,-0.00049326,0.0,0 STARLINK-5982,1 56817U 23078BC  23244.71040743 -.00049326  00000-0 -41760-3 0  9995,2 56817  69.9972 150.5862 0002224 267.1815  92.9125 15.69536224 14970,6738.361,91.747,361.725,358.727,0.0
56817.0,STARLINK-5982,PAYLOAD,2023-09-01 21:39:21,15.68691027,0.0002077,69.9995,150.0525,89.5476,270.5957,-0.0012866,-0.00144706,0.0,0 STARLINK-5982,1 56817U 23078BC  23244.90233698 -.00144706  00000-0 -12866-2 0  9991,2 56817  69.9995 150.0525 0002077  89.5476 270.5957 15.68691027 15005,6740.781,91.796,364.046,361.246,0.0
56817.0,STARLINK-5982,PAYLOAD,2023-09-02 05:16:35,15.69887891,0.0003398,69.9956,149.1547,253.573,106.5092,-0.00020826,-0.00025142,0.0,0 STARLINK-5982,1 56817U 23078BC  23245.21985315 -.00025142  00000-0 -20826-3 0  9994,2 56817  69.9956 149.1547 0003398 253.5730 106.5092 15.69887891 15058,6737.355,91.726,361.509,356.93,0.0
56817.0,STARLINK-5982,PAYLOAD,2023-09-02 11:23:31,15.69915936,0.0003662,69.9953,148.4377,263.5111,96.5668,5.2571e-07,-1.5e-06,0.0,0 STARLINK-5982,1 56817U 23078BC  23245.47466452 -.00000150  00000-0  52571-6 0  9994,2 56817  69.9953 148.4377 0003662 263.5111  96.5668 15.69915936 15099,6737.275,91.725,361.607,356.672,0.0
56817.0,STARLINK-5982,PAYLOAD,2023-09-02 19:02:15,15.69935394,0.0003788,69.9974,147.5432,266.1153,93.9609,1.8271e-05,1.986e-05,0.0,0 STARLINK-5982,1 56817U 23078BC  23245.79323237  .00001986  00000-0  18271-4 0  9996,2 56817  69.9974 147.5432 0003788 266.1153  93.9609 15.69935394 14880,6737.219,91.724,361.636,356.532,0.0
56817.0,STARLINK-5982,PAYLOAD,2023-09-03 02:41:03,15.69896263,0.0003452,69.9977,146.6469,267.6049,92.4751,-4.0335e-05,-5.054e-05,0.0,0 STARLINK-5982,1 56817U 23078BC  23246.11185024 -.00005054  00000-0 -40335-4 0  9991,2 56817  69.9977 146.6469 0003452 267.6049  92.4751 15.69896263 15199,6737.331,91.726,361.522,356.87,0.0
